{
  "norad_id": 53568,
  "name": "STARLINK-4583",
  "history": [
    {
      "epoch": "2026-05-02T09:18:42.469056Z",
      "apogee_km": 540.5100966155533,
      "perigee_km": 538.9148405280994,
      "latitude_deg": -4.6004718286188693e-07,
      "longitude_deg": 172.94759506811855,
      "height_km": 540.5629517406805,
      "semi_major_axis_km": 6917.849468571826,
      "eccentricity": 0.0001153,
      "inclination_deg": 53.2151,
      "raan_deg": 172.9313,
      "arg_perigee_deg": 86.7464,
      "mean_anomaly_deg": 273.366,
      "mean_motion_rev_day": 15.08850116
    },
    {
      "epoch": "2026-05-03T20:17:11.246784Z",
      "apogee_km": 540.5424044525689,
      "perigee_km": 538.9208560456382,
      "latitude_deg": -8.906321658548393e-06,
      "longitude_deg": 0.34891941451360436,
      "height_km": 540.5736868961573,
      "semi_major_axis_km": 6917.868630249103,
      "eccentricity": 0.0001172,
      "inclination_deg": 53.2163,
      "raan_deg": 166.3889,
      "arg_perigee_deg": 86.1954,
      "mean_anomaly_deg": 273.9172,
      "mean_motion_rev_day": 15.08843847
    },
    {
      "epoch": "2026-05-04T09:00:16.180992Z",
      "apogee_km": 540.5383414927046,
      "perigee_km": 538.9365768404296,
      "latitude_deg": -4.292283770354558e-05,
      "longitude_deg": 166.67682188338938,
      "height_km": 540.5860813737715,
      "semi_major_axis_km": 6917.874459166566,
      "eccentricity": 0.00011577,
      "inclination_deg": 53.2159,
      "raan_deg": 164.0097,
      "arg_perigee_deg": 86.6204,
      "mean_anomaly_deg": 273.492,
      "mean_motion_rev_day": 15.0884194
    },
    {
      "epoch": "2026-05-05T12:01:49.778112Z",
      "apogee_km": 540.502410312838,
      "perigee_km": 539.0053787232655,
      "latitude_deg": 1.7583813225057418e-05,
      "longitude_deg": 115.12145635983494,
      "height_km": 540.5976870321425,
      "semi_major_axis_km": 6917.890894518052,
      "eccentricity": 0.0001082,
      "inclination_deg": 53.2157,
      "raan_deg": 158.9542,
      "arg_perigee_deg": 86.0077,
      "mean_anomaly_deg": 274.1039,
      "mean_motion_rev_day": 15.08836563
    },
    {
      "epoch": "2026-05-06T11:52:36.787008Z",
      "apogee_km": 540.5209980070231,
      "perigee_km": 538.9904834170675,
      "latitude_deg": -1.947798371004456e-05,
      "longitude_deg": 111.98581809718763,
      "height_km": 540.5770362019307,
      "semi_major_axis_km": 6917.8927407120445,
      "eccentricity": 0.00011062,
      "inclination_deg": 53.2153,
      "raan_deg": 154.4938,
      "arg_perigee_deg": 84.4099,
      "mean_anomaly_deg": 275.7019,
      "mean_motion_rev_day": 15.08835959
    },
    {
      "epoch": "2026-05-07T18:04:56.911872Z",
      "apogee_km": 540.5326136532185,
      "perigee_km": 539.0023731792753,
      "latitude_deg": -4.962639598690228e-05,
      "longitude_deg": 12.011338036036843,
      "height_km": 540.5585090711526,
      "semi_major_axis_km": 6917.904493416247,
      "eccentricity": 0.0001106,
      "inclination_deg": 53.2152,
      "raan_deg": 148.8437,
      "arg_perigee_deg": 82.1255,
      "mean_anomaly_deg": 277.9862,
      "mean_motion_rev_day": 15.08832114
    },
    {
      "epoch": "2026-05-08T17:55:44.089248Z",
      "apogee_km": 540.5308167687563,
      "perigee_km": 538.9950429843248,
      "latitude_deg": -1.1347363529387484e-05,
      "longitude_deg": 8.874452725810572,
      "height_km": 540.5191128571087,
      "semi_major_axis_km": 6917.89992987654,
      "eccentricity": 0.000111,
      "inclination_deg": 53.2153,
      "raan_deg": 144.3827,
      "arg_perigee_deg": 79.5203,
      "mean_anomaly_deg": 280.5914,
      "mean_motion_rev_day": 15.08833607
    },
    {
      "epoch": "2026-05-09T17:46:31.264032Z",
      "apogee_km": 540.5421663397983,
      "perigee_km": 538.9801049407715,
      "latitude_deg": 6.0975203224978795e-06,
      "longitude_deg": 5.738163540305798,
      "height_km": 540.5375542245214,
      "semi_major_axis_km": 6917.898135640285,
      "eccentricity": 0.0001129,
      "inclination_deg": 53.2153,
      "raan_deg": 139.9223,
      "arg_perigee_deg": 81.2066,
      "mean_anomaly_deg": 278.9054,
      "mean_motion_rev_day": 15.08834194
    },
    {
      "epoch": "2026-05-10T17:37:18.329952Z",
      "apogee_km": 540.5354379688079,
      "perigee_km": 538.9733780888755,
      "latitude_deg": -1.1319850464168688e-05,
      "longitude_deg": 2.6021041911789333,
      "height_km": 540.5394671851284,
      "semi_major_axis_km": 6917.891408028841,
      "eccentricity": 0.0001129,
      "inclination_deg": 53.2153,
      "raan_deg": 135.4617,
      "arg_perigee_deg": 81.8474,
      "mean_anomaly_deg": 278.2646,
      "mean_motion_rev_day": 15.08836395
    }
  ]
}